NOAA 1 [-]              
<<<<<<< .mine
1 04793U 70106A   13103.12113378 -.00000051  00000-0 -25483-4 0  6060
2 04793 102.0260 140.1550 0031627 301.9098  91.5703 12.53956432937881
=======
1 04793U 70106A   13109.52976223 -.00000018  00000-0  17654-3 0  6125
2 04793 102.0249 146.6525 0031637 289.6102 221.7592 12.53956255938685
>>>>>>> .r6620
NOAA 2 [-]              
<<<<<<< .mine
1 06235U 72082A   13103.47204560 -.00000000  00000-0  27242-3 0  7057
2 06235 101.4599  87.5202 0004188  73.9944 102.7518 12.53035301852347
=======
1 06235U 72082A   13107.46236275 -.00000021  00000-0  14303-3 0  7099
2 06235 101.4602  91.3712 0004197  67.4579 101.5339 12.53035525852844
>>>>>>> .r6620
NOAA 3 [-]              
<<<<<<< .mine
1 06920U 73086A   13103.49140887 -.00000010  00000-0  24500-3 0  5970
2 06920 101.7360  94.2729 0006883  61.2488  84.4861 12.40334316785383
=======
1 06920U 73086A   13107.52430093 -.00000016  00000-0  20159-3 0  6017
2 06920 101.7360  98.1640 0006868  54.1754  91.6526 12.40334601785888
>>>>>>> .r6620
NOAA 4 [-]              
<<<<<<< .mine
1 07529U 74089A   13103.50478633 -.00000011  00000-0  19973-3 0  6076
2 07529 101.4395  95.5517 0009384 106.5532  39.1477 12.53081051756933
=======
1 07529U 74089A   13107.49668773 -.00000012  00000-0  19559-3 0  6110
2 07529 101.4393  99.3977 0009441  99.2346  46.5068 12.53081360757435
>>>>>>> .r6620
NOAA 5 [-]              
<<<<<<< .mine
1 09057U 76077A   13103.45878948 -.00000035  00000-0  57953-4 0  4862
2 09057 101.7563 121.1595 0009315 261.1509 251.9323 12.37776023659230
=======
1 09057U 76077A   13107.50090701 -.00000020  00000-0  17479-3 0  4902
2 09057 101.7558 125.0462 0009373 253.0880 264.0819 12.37776109659731
>>>>>>> .r6620
TIROS N [P]             
<<<<<<< .mine
1 11060U 78096A   13103.61840785  .00000138  00000-0  90479-4 0  3208
2 11060  99.0469 114.0423 0010544  11.3571 136.8993 14.17762025996798
=======
1 11060U 78096A   13109.10005649  .00000094  00000-0  68630-4 0  3249
2 11060  99.0463 119.6256 0010267 355.4629  35.2587 14.17763373997570
>>>>>>> .r6620
NOAA 6 [P]              
<<<<<<< .mine
1 11416U 79057A   13103.49581854  .00000381  00000-0  15639-3 0  4807
2 11416  98.4409  97.4456 0011574  86.6957  69.6903 14.32482799761560
=======
1 11416U 79057A   13107.47685367  .00000239  00000-0  10391-3 0  4849
2 11416  98.4408 101.3227 0011506  76.3201  78.2336 14.32484676762139
>>>>>>> .r6620
NOAA 7 [-]              
<<<<<<< .mine
1 12553U 81059A   13103.46668615  .00000084  00000-0  63853-4 0  5716
2 12553  98.8422  54.9616 0010488 280.7769 216.9730 14.16941997643240
=======
1 12553U 81059A   13107.42390156  .00000005  00000-0  24788-4 0  5759
2 12553  98.8427  58.8957 0010511 268.2993 243.8767 14.16942865643809
>>>>>>> .r6620
NOAA 8 [-]              
<<<<<<< .mine
1 13923U 83022A   13103.53822003  .00000193  00000-0  94819-4 0  4874
2 13923  98.4589 117.2237 0014530 332.8178 190.2603 14.27984477564101
=======
1 13923U 83022A   13107.53208162  .00000139  00000-0  73007-4 0  4924
2 13923  98.4585 121.0934 0014362 320.2475 202.5190 14.27985683564678
>>>>>>> .r6620
NOAA 9 [P]              
<<<<<<< .mine
1 15427U 84123A   13103.45264830  .00000198  00000-0  12292-3 0  3831
2 15427  98.6166  60.2986 0014870   9.3104 137.9169 14.15572170462477
=======
1 15427U 84123A   13107.18429150  .00000043  00000-0  43577-4 0  3877
2 15427  98.6171  63.9064 0014653 358.5327  74.6766 14.15573957463009
>>>>>>> .r6620
NOAA 10 [-]             
<<<<<<< .mine
1 16969U 86073A   13103.51626291  .00000097  00000-0  56739-4 0  3124
2 16969  98.5509 132.7470 0013334  78.3345  71.6399 14.27627401382717
=======
1 16969U 86073A   13109.54327036  .00000073  00000-0  47049-4 0  3205
2 16969  98.5499 138.6461 0013052  62.0510  85.8318 14.27628513383579
>>>>>>> .r6620
NOAA 11 [-]             
<<<<<<< .mine
1 19531U 88089A   13103.32098509 -.00000008  00000-0  18309-4 0  3163
2 19531  98.7113 187.8796 0012257  89.2752 300.2826 14.15010011266959
=======
1 19531U 88089A   13109.26559970 -.00000028  00000-0  78609-5 0  3225
2 19531  98.7114 193.6844 0012148  73.5887 341.0635 14.15010359267792
>>>>>>> .r6620
NOAA 12 [-]             
<<<<<<< .mine
1 21263U 91032A   13103.40851154  .00000050  00000-0  39931-4 0  7863
2 21263  98.7021 129.2928 0014451  52.5655  59.7752 14.25556056139321
=======
1 21263U 91032A   13109.44837576  .00000052  00000-0  40481-4 0  7926
2 21263  98.7012 135.2879 0014171  35.6781  95.7040 14.25556736140185
>>>>>>> .r6620
NOAA 13 [-]             
<<<<<<< .mine
1 22739U 93050A   13103.24516928  .00000025  00000-0  37141-4 0  3154
2 22739  98.7476 181.0054 0009669 196.1329 230.9486 14.12396625 14013
=======
1 22739U 93050A   13109.26244308  .00000139  00000-0  98460-4 0  3216
2 22739  98.7475 186.8804 0009964 179.2280 226.3637 14.12395737 14867
>>>>>>> .r6620
NOAA 14 [-]             
<<<<<<< .mine
1 23455U 94089A   13103.46287832 -.00000032  00000-0  62911-5 0  2710
2 23455  98.8030 188.8791 0009857 176.1648 243.3866 14.13901592943220
=======
1 23455U 94089A   13109.47812271 -.00000052  00000-0 -44433-5 0  2787
2 23455  98.8031 194.8035 0010159 160.0434 260.2655 14.13902207944073
>>>>>>> .r6620
NOAA 15 [P]             
<<<<<<< .mine
1 25338U 98030A   13103.50600000  .00000219  00000-0  11216-3 0  6926
2 25338  98.7215  94.0756 0009680 320.1000 185.9938 14.25199687775627
=======
1 25338U 98030A   13109.60711860  .00000118  00000-0  69124-4 0  6986
2 25338  98.7216 100.1414 0009465 300.4053 171.1133 14.25201517776494
>>>>>>> .r6620
NOAA 16 [P]             
<<<<<<< .mine
1 26536U 00055A   13103.41209633  .00000193  00000-0  12845-3 0  1682
2 26536  99.0491 155.5155 0009605 321.3000 168.0854 14.12859189647425
=======
1 26536U 00055A   13109.49761575  .00000199  00000-0  13138-3 0  1743
2 26536  99.0483 161.6652 0009501 302.4054 162.6001 14.12860409648286
>>>>>>> .r6620
NOAA 17 [P]             
<<<<<<< .mine
1 27453U 02032A   13103.45918074  .00000177  00000-0  93748-4 0   917
2 27453  98.3153 120.9652 0011278   1.9402 100.6050 14.24553669561506
=======
1 27453U 02032A   13109.57827361  .00000049  00000-0  38799-4 0   973
2 27453  98.3146 126.7616 0010986 343.7663 162.3088 14.24581225562374
>>>>>>> .r6620
NOAA 18 [+]             
<<<<<<< .mine
1 28654U 05018A   13103.46107438  .00000277  00000-0  17708-3 0  5741
2 28654  99.0938  70.7696 0014777  34.8073 117.4255 14.11796571406929
=======
1 28654U 05018A   13109.48410836  .00000197  00000-0  13310-3 0  5801
2 28654  99.0944  76.8746 0014501  18.3766 128.8511 14.11798541407774
>>>>>>> .r6620
NOAA 19 [+]             
<<<<<<< .mine
1 33591U 09005A   13103.46268734  .00000302  00000-0  19106-3 0  7604
2 33591  98.8993  46.0536 0013076 251.0679 246.4014 14.11483594215368
=======
1 33591U 09005A   13109.54449009  .00000178  00000-0  12245-3 0  7669
2 33591  98.9003  52.0838 0013241 232.7537 191.2944 14.11485866216225
>>>>>>> .r6620
NPP [+]                 
<<<<<<< .mine
1 37849U 11061A   13103.46094590  .00000117  00000-0  76459-4 0  4635
2 37849  98.7486  42.7492 0000720 141.9197 354.6125 14.19537537 75636
=======
1 37849U 11061A   13107.12221817  .00000026  00000-0  33094-4 0  4666
2 37849  98.7490  46.3659 0000851 142.7925 333.5435 14.19538115 76150
>>>>>>> .r6620
